[{"OBJECT_NAME":"IRIDE FM1","OBJECT_ID":"2025-276AF","EPOCH":"2026-03-09T18:13:05.170368","MEAN_MOTION":15.19690008,"ECCENTRICITY":8.247e-5,"INCLINATION":97.4265,"RA_OF_ASC_NODE":144.1318,"ARG_OF_PERICENTER":49.2046,"MEAN_ANOMALY":310.9261,"EPHEMERIS_TYPE":0,"CLASSIFICATION_TYPE":"U","NORAD_CAT_ID":66695,"ELEMENT_SET_NO":999,"REV_AT_EPOCH":1533,"BSTAR":0.00038663659,"MEAN_MOTION_DOT":8.188e-5,"MEAN_MOTION_DDOT":0},{"OBJECT_NAME":"LANDSAT 5","OBJECT_ID":"1984-021A","EPOCH":"2026-03-09T17:06:39.595392","MEAN_MOTION":15.03956175,"ECCENTRICITY":0.00705197,"INCLINATION":98.0698,"RA_OF_ASC_NODE":343.5816,"ARG_OF_PERICENTER":90.3041,"MEAN_ANOMALY":270.6265,"EPHEMERIS_TYPE":0,"CLASSIFICATION_TYPE":"U","NORAD_CAT_ID":14780,"ELEMENT_SET_NO":999,"REV_AT_EPOCH":77643,"BSTAR":0.00029889959,"MEAN_MOTION_DOT":4.286e-5,"MEAN_MOTION_DDOT":0}]
